ONEWEB-0102             
1 47258U 20100A   24146.52242133  .00000322  00000+0  85990-3 0  9998
2 47258  87.8928 140.5398 0002114  83.5854 276.5515 13.12444610166001
ONEWEB-0109             
1 47259U 20100B   24146.53037177  .00000034  00000+0  59640-4 0  9994
2 47259  87.8929 140.5024 0002161  86.1429 273.9946 13.12440023165831
ONEWEB-0110             
1 47260U 20100C   24146.47794581 -.00000327  00000+0 -94572-3 0  9997
2 47260  87.8923 140.5192 0002205  88.3256 271.8125 13.12440767165992
ONEWEB-0111             
1 47261U 20100D   24146.51131911  .00001571  00000+0  43301-2 0  9998
2 47261  87.8926 140.5083 0001970  87.5021 272.6333 13.12437071165831
ONEWEB-0114             
1 47262U 20100E   24146.46525361 -.00000303  00000+0 -87671-3 0  9992
2 47262  87.8923 140.5338 0002233  74.5946 285.5429 13.12442030165781
ONEWEB-0117             
1 47263U 20100F   24146.53356334 -.00002203  00000+0 -61624-2 0  9993
2 47263  87.8928 140.4946 0001933  90.3827 269.7523 13.12426178165808
ONEWEB-0118             
1 47264U 20100G   24146.48907957 -.00000006  00000+0 -52985-4 0  9992
2 47264  87.8928 140.5074 0001884  71.7424 288.3909 13.12443441165990
ONEWEB-0119             
1 47265U 20100H   24146.51767207  .00000456  00000+0  12309-2 0  9990
2 47265  87.8928 140.5404 0002089  86.7363 273.4005 13.12444946165975
